PROPCUBE 1 (FLORA)      
1 40976U 15058N   26087.59928016  .00002883  00000+0  27864-3 0  9998
2 40976  64.7753 184.9079 0129449  92.6118 268.9819 14.88772261104266
SINOD-D 3               
1 40977U 15058P   26087.49678366  .00003667  00000+0  31863-3 0  9993
2 40977  64.7729 167.6648 0117845  90.4248 271.0370 14.93387279102708
HORYU-4                 
1 41340U 16012D   26087.60276773  .00116131  00000+0  10511-2 0  9995
2 41340  30.9911 295.3777 0005533 334.6820  25.3562 15.66582692558077
RAVAN                   
1 41849U 16067B   26087.59632386  .00049042  00000+0  94450-3 0  9994
2 41849  98.0011 328.2863 0004327 287.2776  72.7999 15.47722930515200
CELTEE 1                
1 41850U 16067C   26087.59179209  .00006302  00000+0  30622-3 0  9999
2 41850  98.0794 308.6584 0002053 116.6287 243.5156 15.18836655513645
OPTICUBE 04             
1 41851U 16067D   26087.53802799  .00002825  00000+0  18121-3 0  9997
2 41851  98.0794 295.5886 0016439  34.6976 325.5320 15.09294744513003
AEROCUBE 8D             
1 41852U 16067E   26087.58364365  .00009295  00000+0  39596-3 0  9992
2 41852  98.0811 311.6412 0004732  65.2584 294.9143 15.23209228513794
AEROCUBE 8C             
1 41853U 16067F   26087.55550311  .00009766  00000+0  41301-3 0  9998
2 41853  98.0681 308.9446 0005054 355.3233   4.7954 15.23438193513789
CORVUS BC2              
1 42846U 17042X   26087.40193730  .00005007  00000+0  34918-3 0  9997
2 42846  97.3974 251.9595 0013680  33.5438 326.6653 15.05749412474908
CORVUS BC1              
1 42847U 17042Y   26087.40589244  .00004385  00000+0  30490-3 0  9996
2 42847  97.4006 252.7230 0012105  11.2690 348.8807 15.05947920474939
MAKERSAT 0              
1 43016U 17073D   26087.62540937  .00025111  00000+0  74076-3 0  9997
2 43016  97.4757 329.6758 0114504 198.0956 161.6194 15.28629906454142
SIRION PATHFINDER-2     
1 43759U 18099B   26087.36002206  .00006434  00000+0  36007-3 0  9992
2 43759  97.4357 138.3459 0008124 210.6709 149.4049 15.13755952400398
CORVUS BC4              
1 43767U 18099K   26087.59016983  .00005375  00000+0  31825-3 0  9999
2 43767  97.4178 132.9295 0006711 280.9574  79.0902 15.11808074400226
M2 PATHFINDER           
1 45727U 20037E   26087.50443881  .00002437  00000+0  17927-3 0  9997
2 45727  97.8174 277.8349 0013188  69.3737 290.8902 15.04298183313366
NETSAT-4                
1 46504U 20068U   26087.55488247  .00021524  00000+0  52137-3 0  9995
2 46504  97.8641  89.4812 0003821 235.4492 124.6393 15.41112532303347
NETSAT-3                
1 46505U 20068V   26087.56144343  .00022962  00000+0  58022-3 0  9999
2 46505  97.8679  87.8165 0003288 261.5419  98.5453 15.39814305303269
