[{"OBJECT_NAME":"PROPCUBE 1 (FLORA)","OBJECT_ID":"2015-058N","EPOCH":"2026-03-28T14:22:57.805824","MEAN_MOTION":14.88772261,"ECCENTRICITY":0.0129449,"INCLINATION":64.7753,"RA_OF_ASC_NODE":184.9079,"ARG_OF_PERICENTER":92.6118,"MEAN_ANOMALY":268.9819,"EPHEMERIS_TYPE":0,"CLASSIFICATION_TYPE":"U","NORAD_CAT_ID":40976,"ELEMENT_SET_NO":999,"REV_AT_EPOCH":10426,"BSTAR":0.00027864474,"MEAN_MOTION_DOT":2.883e-5,"MEAN_MOTION_DDOT":0},{"OBJECT_NAME":"SINOD-D 3","OBJECT_ID":"2015-058P","EPOCH":"2026-03-28T11:55:22.108224","MEAN_MOTION":14.93387279,"ECCENTRICITY":0.0117845,"INCLINATION":64.7729,"RA_OF_ASC_NODE":167.6648,"ARG_OF_PERICENTER":90.4248,"MEAN_ANOMALY":271.037,"EPHEMERIS_TYPE":0,"CLASSIFICATION_TYPE":"U","NORAD_CAT_ID":40977,"ELEMENT_SET_NO":999,"REV_AT_EPOCH":10270,"BSTAR":0.00031863,"MEAN_MOTION_DOT":3.667e-5,"MEAN_MOTION_DDOT":0},{"OBJECT_NAME":"HORYU-4","OBJECT_ID":"2016-012D","EPOCH":"2026-03-28T14:27:59.131872","MEAN_MOTION":15.66582692,"ECCENTRICITY":0.00055333,"INCLINATION":30.9911,"RA_OF_ASC_NODE":295.3777,"ARG_OF_PERICENTER":334.682,"MEAN_ANOMALY":25.3562,"EPHEMERIS_TYPE":0,"CLASSIFICATION_TYPE":"U","NORAD_CAT_ID":41340,"ELEMENT_SET_NO":999,"REV_AT_EPOCH":55807,"BSTAR":0.0010510767,"MEAN_MOTION_DOT":0.00116131,"MEAN_MOTION_DDOT":0},{"OBJECT_NAME":"RAVAN","OBJECT_ID":"2016-067B","EPOCH":"2026-03-28T14:18:42.381504","MEAN_MOTION":15.4772293,"ECCENTRICITY":0.00043273,"INCLINATION":98.0011,"RA_OF_ASC_NODE":328.2863,"ARG_OF_PERICENTER":287.2776,"MEAN_ANOMALY":72.7999,"EPHEMERIS_TYPE":0,"CLASSIFICATION_TYPE":"U","NORAD_CAT_ID":41849,"ELEMENT_SET_NO":999,"REV_AT_EPOCH":51520,"BSTAR":0.00094449774,"MEAN_MOTION_DOT":0.00049042,"MEAN_MOTION_DDOT":0},{"OBJECT_NAME":"CELTEE 1","OBJECT_ID":"2016-067C","EPOCH":"2026-03-28T14:12:10.836576","MEAN_MOTION":15.18836655,"ECCENTRICITY":0.00020535,"INCLINATION":98.0794,"RA_OF_ASC_NODE":308.6584,"ARG_OF_PERICENTER":116.6287,"MEAN_ANOMALY":243.5156,"EPHEMERIS_TYPE":0,"CLASSIFICATION_TYPE":"U","NORAD_CAT_ID":41850,"ELEMENT_SET_NO":999,"REV_AT_EPOCH":51364,"BSTAR":0.00030621525,"MEAN_MOTION_DOT":6.302e-5,"MEAN_MOTION_DDOT":0},{"OBJECT_NAME":"OPTICUBE 04","OBJECT_ID":"2016-067D","EPOCH":"2026-03-28T12:54:45.618336","MEAN_MOTION":15.09294744,"ECCENTRICITY":0.00164394,"INCLINATION":98.0794,"RA_OF_ASC_NODE":295.5886,"ARG_OF_PERICENTER":34.6976,"MEAN_ANOMALY":325.532,"EPHEMERIS_TYPE":0,"CLASSIFICATION_TYPE":"U","NORAD_CAT_ID":41851,"ELEMENT_SET_NO":999,"REV_AT_EPOCH":51300,"BSTAR":0.00018121007,"MEAN_MOTION_DOT":2.825e-5,"MEAN_MOTION_DDOT":0},{"OBJECT_NAME":"AEROCUBE 8D","OBJECT_ID":"2016-067E","EPOCH":"2026-03-28T14:00:26.811360","MEAN_MOTION":15.23209228,"ECCENTRICITY":0.0004732,"INCLINATION":98.0811,"RA_OF_ASC_NODE":311.6412,"ARG_OF_PERICENTER":65.2584,"MEAN_ANOMALY":294.9143,"EPHEMERIS_TYPE":0,"CLASSIFICATION_TYPE":"U","NORAD_CAT_ID":41852,"ELEMENT_SET_NO":999,"REV_AT_EPOCH":51379,"BSTAR":0.00039595627,"MEAN_MOTION_DOT":9.295e-5,"MEAN_MOTION_DDOT":0},{"OBJECT_NAME":"AEROCUBE 8C","OBJECT_ID":"2016-067F","EPOCH":"2026-03-28T13:19:55.468704","MEAN_MOTION":15.23438193,"ECCENTRICITY":0.00050549,"INCLINATION":98.0681,"RA_OF_ASC_NODE":308.9446,"ARG_OF_PERICENTER":355.3233,"MEAN_ANOMALY":4.7954,"EPHEMERIS_TYPE":0,"CLASSIFICATION_TYPE":"U","NORAD_CAT_ID":41853,"ELEMENT_SET_NO":999,"REV_AT_EPOCH":51378,"BSTAR":0.00041300632,"MEAN_MOTION_DOT":9.766e-5,"MEAN_MOTION_DDOT":0},{"OBJECT_NAME":"CORVUS BC2","OBJECT_ID":"2017-042X","EPOCH":"2026-03-28T09:38:47.382720","MEAN_MOTION":15.05749412,"ECCENTRICITY":0.00136803,"INCLINATION":97.3974,"RA_OF_ASC_NODE":251.9595,"ARG_OF_PERICENTER":33.5438,"MEAN_ANOMALY":326.6653,"EPHEMERIS_TYPE":0,"CLASSIFICATION_TYPE":"U","NORAD_CAT_ID":42846,"ELEMENT_SET_NO":999,"REV_AT_EPOCH":47490,"BSTAR":0.00034917951,"MEAN_MOTION_DOT":5.007e-5,"MEAN_MOTION_DDOT":0},{"OBJECT_NAME":"CORVUS BC1","OBJECT_ID":"2017-042Y","EPOCH":"2026-03-28T09:44:29.106816","MEAN_MOTION":15.0594792,"ECCENTRICITY":0.00121057,"INCLINATION":97.4006,"RA_OF_ASC_NODE":252.723,"ARG_OF_PERICENTER":11.269,"MEAN_ANOMALY":348.8807,"EPHEMERIS_TYPE":0,"CLASSIFICATION_TYPE":"U","NORAD_CAT_ID":42847,"ELEMENT_SET_NO":999,"REV_AT_EPOCH":47493,"BSTAR":0.00030489561,"MEAN_MOTION_DOT":4.385e-5,"MEAN_MOTION_DDOT":0},{"OBJECT_NAME":"MAKERSAT 0","OBJECT_ID":"2017-073D","EPOCH":"2026-03-28T15:00:35.369568","MEAN_MOTION":15.28629906,"ECCENTRICITY":0.01145041,"INCLINATION":97.4757,"RA_OF_ASC_NODE":329.6758,"ARG_OF_PERICENTER":198.0956,"MEAN_ANOMALY":161.6194,"EPHEMERIS_TYPE":0,"CLASSIFICATION_TYPE":"U","NORAD_CAT_ID":43016,"ELEMENT_SET_NO":999,"REV_AT_EPOCH":45414,"BSTAR":0.00074076423,"MEAN_MOTION_DOT":0.00025111,"MEAN_MOTION_DDOT":0},{"OBJECT_NAME":"SIRION PATHFINDER-2","OBJECT_ID":"2018-099B","EPOCH":"2026-03-28T08:38:25.905984","MEAN_MOTION":15.13755952,"ECCENTRICITY":0.00081249,"INCLINATION":97.4357,"RA_OF_ASC_NODE":138.3459,"ARG_OF_PERICENTER":210.6709,"MEAN_ANOMALY":149.4049,"EPHEMERIS_TYPE":0,"CLASSIFICATION_TYPE":"U","NORAD_CAT_ID":43759,"ELEMENT_SET_NO":999,"REV_AT_EPOCH":40039,"BSTAR":0.00036007146,"MEAN_MOTION_DOT":6.434e-5,"MEAN_MOTION_DDOT":0},{"OBJECT_NAME":"CORVUS BC4","OBJECT_ID":"2018-099K","EPOCH":"2026-03-28T14:09:50.673312","MEAN_MOTION":15.11808074,"ECCENTRICITY":0.00067117,"INCLINATION":97.4178,"RA_OF_ASC_NODE":132.9295,"ARG_OF_PERICENTER":280.9574,"MEAN_ANOMALY":79.0902,"EPHEMERIS_TYPE":0,"CLASSIFICATION_TYPE":"U","NORAD_CAT_ID":43767,"ELEMENT_SET_NO":999,"REV_AT_EPOCH":40022,"BSTAR":0.0003182512,"MEAN_MOTION_DOT":5.375e-5,"MEAN_MOTION_DDOT":0},{"OBJECT_NAME":"M2 PATHFINDER","OBJECT_ID":"2020-037E","EPOCH":"2026-03-28T12:06:23.513184","MEAN_MOTION":15.04298183,"ECCENTRICITY":0.0013188,"INCLINATION":97.8174,"RA_OF_ASC_NODE":277.8349,"ARG_OF_PERICENTER":69.3737,"MEAN_ANOMALY":290.8902,"EPHEMERIS_TYPE":0,"CLASSIFICATION_TYPE":"U","NORAD_CAT_ID":45727,"ELEMENT_SET_NO":999,"REV_AT_EPOCH":31336,"BSTAR":0.00017927,"MEAN_MOTION_DOT":2.437e-5,"MEAN_MOTION_DDOT":0},{"OBJECT_NAME":"NETSAT-4","OBJECT_ID":"2020-068U","EPOCH":"2026-03-28T13:19:01.845408","MEAN_MOTION":15.41112532,"ECCENTRICITY":0.00038212,"INCLINATION":97.8641,"RA_OF_ASC_NODE":89.4812,"ARG_OF_PERICENTER":235.4492,"MEAN_ANOMALY":124.6393,"EPHEMERIS_TYPE":0,"CLASSIFICATION_TYPE":"U","NORAD_CAT_ID":46504,"ELEMENT_SET_NO":999,"REV_AT_EPOCH":30334,"BSTAR":0.00052136823,"MEAN_MOTION_DOT":0.00021524,"MEAN_MOTION_DDOT":0},{"OBJECT_NAME":"NETSAT-3","OBJECT_ID":"2020-068V","EPOCH":"2026-03-28T13:28:28.712352","MEAN_MOTION":15.39814305,"ECCENTRICITY":0.00032881,"INCLINATION":97.8679,"RA_OF_ASC_NODE":87.8165,"ARG_OF_PERICENTER":261.5419,"MEAN_ANOMALY":98.5453,"EPHEMERIS_TYPE":0,"CLASSIFICATION_TYPE":"U","NORAD_CAT_ID":46505,"ELEMENT_SET_NO":999,"REV_AT_EPOCH":30326,"BSTAR":0.00058022232,"MEAN_MOTION_DOT":0.00022962,"MEAN_MOTION_DDOT":0}]
